ZORKIY-2M-5             
1 67295U 25313AZ  26016.94766441  .00009179  00000+0  40919-3 0  9990
2 67295  97.4112  94.1142 0011498 152.1920 207.9933 15.21578055  2957
SITRO-AIS-62            
1 67296U 25313BA  26016.94696001  .00010222  00000+0  45438-3 0  9997
2 67296  97.4124  94.1203 0009747 161.4411 198.7183 15.21662660  2951
SITRO-AIS-61            
1 67297U 25313BB  26016.94622443  .00010118  00000+0  44901-3 0  9995
2 67297  97.4127  94.1211 0009420 163.3191 196.8357 15.21725279  2956
TIANHUI 7               
1 67300U 25314A   26017.38904097  .00002022  00000+0  82683-4 0  9993
2 67300  97.4206  94.4578 0001844 108.3541 251.7897 15.25503369  2798
CZ-4B R/B               
1 67301U 25314B   26016.96083724  .00106712  54943-5  51536-3 0  9996
2 67301  97.3744  95.0744 0137900 311.7769  47.1773 15.69769186  2757
SHIJIAN-29A (SJ-29A)    
1 67302U 25315A   26016.85233295 -.00000052  00000+0  00000+0 0  9992
2 67302   3.0144  99.1337 0001543 305.6680  91.3468  1.00271509   102
CZ-7A R/B               
1 67303U 25315B   26016.67349735  .00138472  14161-5  37144-2 0  9998
2 67303  19.5697  93.5866 7193067 191.7422 131.7491  2.43762573   414
CSG-3                   
1 67304U 26001A   26016.97890297  .00000168  00000+0  27449-4 0  9999
2 67304  97.8445 202.8320 0001402  75.6614 284.4755 14.82411671  2060
STARLINK-36490          
1 67305U 26002A   26016.91668981 -.01319775  00000+0 -66789-2 0  9996
2 67305  42.9964 264.0383 0001518 267.5639 249.3791 15.83405180  3155
STARLINK-36488          
1 67306U 26002B   26016.91668981 -.01321673  00000+0 -66895-2 0  9995
2 67306  42.9967 264.0330 0001613 281.1885 237.8547 15.83405329  3091
STARLINK-36481          
1 67307U 26002C   26016.91668981 -.01338319  00000+0 -67983-2 0  9990
2 67307  42.9968 264.0208 0001509 275.8943 248.0971 15.83368210  3098
STARLINK-36449          
1 67308U 26002D   26016.91668981 -.01346550  00000+0 -68497-2 0  9998
2 67308  42.9966 264.0147 0001521 275.6452 250.7097 15.83357260  3155
