CCSDS_OMM_VERS = 2.0
CREATION_DATE  = 
ORIGINATOR     = 

OBJECT_NAME    = ZORKIY-2M-5
OBJECT_ID      = 2025-313AZ
CENTER_NAME    = EARTH
REF_FRAME      = TEME
TIME_SYSTEM    = UTC
MEAN_ELEMENT_THEORY = SGP/SGP4

EPOCH          = 2026-01-16T22:44:38.205024
MEAN_MOTION    = 15.21578055
ECCENTRICITY   = .00114982
INCLINATION    = 97.4112
RA_OF_ASC_NODE = 94.1142
ARG_OF_PERICENTER = 152.1920
MEAN_ANOMALY   = 207.9933

EPHEMERIS_TYPE = 0
CLASSIFICATION_TYPE = U
NORAD_CAT_ID   = 67295
ELEMENT_SET_NO = 999
REV_AT_EPOCH   = 295
BSTAR          = .40919028E-3
MEAN_MOTION_DOT = .9179E-4
MEAN_MOTION_DDOT = 0

CCSDS_OMM_VERS = 2.0
CREATION_DATE  = 
ORIGINATOR     = 

OBJECT_NAME    = SITRO-AIS-62
OBJECT_ID      = 2025-313BA
CENTER_NAME    = EARTH
REF_FRAME      = TEME
TIME_SYSTEM    = UTC
MEAN_ELEMENT_THEORY = SGP/SGP4

EPOCH          = 2026-01-16T22:43:37.344864
MEAN_MOTION    = 15.21662660
ECCENTRICITY   = .0009747
INCLINATION    = 97.4124
RA_OF_ASC_NODE = 94.1203
ARG_OF_PERICENTER = 161.4411
MEAN_ANOMALY   = 198.7183

EPHEMERIS_TYPE = 0
CLASSIFICATION_TYPE = U
NORAD_CAT_ID   = 67296
ELEMENT_SET_NO = 999
REV_AT_EPOCH   = 295
BSTAR          = .45438353E-3
MEAN_MOTION_DOT = .10222E-3
MEAN_MOTION_DDOT = 0

CCSDS_OMM_VERS = 2.0
CREATION_DATE  = 
ORIGINATOR     = 

OBJECT_NAME    = SITRO-AIS-61
OBJECT_ID      = 2025-313BB
CENTER_NAME    = EARTH
REF_FRAME      = TEME
TIME_SYSTEM    = UTC
MEAN_ELEMENT_THEORY = SGP/SGP4

EPOCH          = 2026-01-16T22:42:33.790752
MEAN_MOTION    = 15.21725279
ECCENTRICITY   = .00094206
INCLINATION    = 97.4127
RA_OF_ASC_NODE = 94.1211
ARG_OF_PERICENTER = 163.3191
MEAN_ANOMALY   = 196.8357

EPHEMERIS_TYPE = 0
CLASSIFICATION_TYPE = U
NORAD_CAT_ID   = 67297
ELEMENT_SET_NO = 999
REV_AT_EPOCH   = 295
BSTAR          = .44901391E-3
MEAN_MOTION_DOT = .10118E-3
MEAN_MOTION_DDOT = 0

CCSDS_OMM_VERS = 2.0
CREATION_DATE  = 
ORIGINATOR     = 

OBJECT_NAME    = TIANHUI 7
OBJECT_ID      = 2025-314A
CENTER_NAME    = EARTH
REF_FRAME      = TEME
TIME_SYSTEM    = UTC
MEAN_ELEMENT_THEORY = SGP/SGP4

EPOCH          = 2026-01-17T09:20:13.139808
MEAN_MOTION    = 15.25503369
ECCENTRICITY   = .0001844
INCLINATION    = 97.4206
RA_OF_ASC_NODE = 94.4578
ARG_OF_PERICENTER = 108.3541
MEAN_ANOMALY   = 251.7897

EPHEMERIS_TYPE = 0
CLASSIFICATION_TYPE = U
NORAD_CAT_ID   = 67300
ELEMENT_SET_NO = 999
REV_AT_EPOCH   = 279
BSTAR          = .82683E-4
MEAN_MOTION_DOT = .2022E-4
MEAN_MOTION_DDOT = 0

CCSDS_OMM_VERS = 2.0
CREATION_DATE  = 
ORIGINATOR     = 

OBJECT_NAME    = CZ-4B R/B
OBJECT_ID      = 2025-314B
CENTER_NAME    = EARTH
REF_FRAME      = TEME
TIME_SYSTEM    = UTC
MEAN_ELEMENT_THEORY = SGP/SGP4

EPOCH          = 2026-01-16T23:03:36.337536
MEAN_MOTION    = 15.69769186
ECCENTRICITY   = .01379006
INCLINATION    = 97.3744
RA_OF_ASC_NODE = 95.0744
ARG_OF_PERICENTER = 311.7769
MEAN_ANOMALY   = 47.1773

EPHEMERIS_TYPE = 0
CLASSIFICATION_TYPE = U
NORAD_CAT_ID   = 67301
ELEMENT_SET_NO = 999
REV_AT_EPOCH   = 275
BSTAR          = .51536183E-3
MEAN_MOTION_DOT = .106712E-2
MEAN_MOTION_DDOT = .5494326E-5

CCSDS_OMM_VERS = 2.0
CREATION_DATE  = 
ORIGINATOR     = 

OBJECT_NAME    = SHIJIAN-29A (SJ-29A)
OBJECT_ID      = 2025-315A
CENTER_NAME    = EARTH
REF_FRAME      = TEME
TIME_SYSTEM    = UTC
MEAN_ELEMENT_THEORY = SGP/SGP4

EPOCH          = 2026-01-16T20:27:21.566880
MEAN_MOTION    = 1.00271509
ECCENTRICITY   = .00015432
INCLINATION    = 3.0144
RA_OF_ASC_NODE = 99.1337
ARG_OF_PERICENTER = 305.6680
MEAN_ANOMALY   = 91.3468

EPHEMERIS_TYPE = 0
CLASSIFICATION_TYPE = U
NORAD_CAT_ID   = 67302
ELEMENT_SET_NO = 999
REV_AT_EPOCH   = 10
BSTAR          = 0
MEAN_MOTION_DOT = -.52E-6
MEAN_MOTION_DDOT = 0

CCSDS_OMM_VERS = 2.0
CREATION_DATE  = 
ORIGINATOR     = 

OBJECT_NAME    = CZ-7A R/B
OBJECT_ID      = 2025-315B
CENTER_NAME    = EARTH
REF_FRAME      = TEME
TIME_SYSTEM    = UTC
MEAN_ELEMENT_THEORY = SGP/SGP4

EPOCH          = 2026-01-16T16:09:50.171040
MEAN_MOTION    = 2.43762573
ECCENTRICITY   = .71930673
INCLINATION    = 19.5697
RA_OF_ASC_NODE = 93.5866
ARG_OF_PERICENTER = 191.7422
MEAN_ANOMALY   = 131.7491

EPHEMERIS_TYPE = 0
CLASSIFICATION_TYPE = U
NORAD_CAT_ID   = 67303
ELEMENT_SET_NO = 999
REV_AT_EPOCH   = 41
BSTAR          = .37143966E-2
MEAN_MOTION_DOT = .138472E-2
MEAN_MOTION_DDOT = .1416125E-5

CCSDS_OMM_VERS = 2.0
CREATION_DATE  = 
ORIGINATOR     = 

OBJECT_NAME    = CSG-3
OBJECT_ID      = 2026-001A
CENTER_NAME    = EARTH
REF_FRAME      = TEME
TIME_SYSTEM    = UTC
MEAN_ELEMENT_THEORY = SGP/SGP4

EPOCH          = 2026-01-16T23:29:37.216608
MEAN_MOTION    = 14.82411671
ECCENTRICITY   = .0001402
INCLINATION    = 97.8445
RA_OF_ASC_NODE = 202.8320
ARG_OF_PERICENTER = 75.6614
MEAN_ANOMALY   = 284.4755

EPHEMERIS_TYPE = 0
CLASSIFICATION_TYPE = U
NORAD_CAT_ID   = 67304
ELEMENT_SET_NO = 999
REV_AT_EPOCH   = 206
BSTAR          = .27449307E-4
MEAN_MOTION_DOT = .168E-5
MEAN_MOTION_DDOT = 0

CCSDS_OMM_VERS = 2.0
CREATION_DATE  = 
ORIGINATOR     = 

OBJECT_NAME    = STARLINK-36490
OBJECT_ID      = 2026-002A
CENTER_NAME    = EARTH
REF_FRAME      = TEME
TIME_SYSTEM    = UTC
MEAN_ELEMENT_THEORY = SGP/SGP4

EPOCH          = 2026-01-16T22:00:01.999584
MEAN_MOTION    = 15.83405180
ECCENTRICITY   = .00015182
INCLINATION    = 42.9964
RA_OF_ASC_NODE = 264.0383
ARG_OF_PERICENTER = 267.5639
MEAN_ANOMALY   = 249.3791

EPHEMERIS_TYPE = 0
CLASSIFICATION_TYPE = U
NORAD_CAT_ID   = 67305
ELEMENT_SET_NO = 999
REV_AT_EPOCH   = 315
BSTAR          = -.66789225E-2
MEAN_MOTION_DOT = -.1319775E-1
MEAN_MOTION_DDOT = 0

CCSDS_OMM_VERS = 2.0
CREATION_DATE  = 
ORIGINATOR     = 

OBJECT_NAME    = STARLINK-36488
OBJECT_ID      = 2026-002B
CENTER_NAME    = EARTH
REF_FRAME      = TEME
TIME_SYSTEM    = UTC
MEAN_ELEMENT_THEORY = SGP/SGP4

EPOCH          = 2026-01-16T22:00:01.999584
MEAN_MOTION    = 15.83405329
ECCENTRICITY   = .00016136
INCLINATION    = 42.9967
RA_OF_ASC_NODE = 264.0330
ARG_OF_PERICENTER = 281.1885
MEAN_ANOMALY   = 237.8547

EPHEMERIS_TYPE = 0
CLASSIFICATION_TYPE = U
NORAD_CAT_ID   = 67306
ELEMENT_SET_NO = 999
REV_AT_EPOCH   = 309
BSTAR          = -.66894598E-2
MEAN_MOTION_DOT = -.1321673E-1
MEAN_MOTION_DDOT = 0

CCSDS_OMM_VERS = 2.0
CREATION_DATE  = 
ORIGINATOR     = 

OBJECT_NAME    = STARLINK-36481
OBJECT_ID      = 2026-002C
CENTER_NAME    = EARTH
REF_FRAME      = TEME
TIME_SYSTEM    = UTC
MEAN_ELEMENT_THEORY = SGP/SGP4

EPOCH          = 2026-01-16T22:00:01.999584
MEAN_MOTION    = 15.83368210
ECCENTRICITY   = .00015094
INCLINATION    = 42.9968
RA_OF_ASC_NODE = 264.0208
ARG_OF_PERICENTER = 275.8943
MEAN_ANOMALY   = 248.0971

EPHEMERIS_TYPE = 0
CLASSIFICATION_TYPE = U
NORAD_CAT_ID   = 67307
ELEMENT_SET_NO = 999
REV_AT_EPOCH   = 309
BSTAR          = -.67982822E-2
MEAN_MOTION_DOT = -.1338319E-1
MEAN_MOTION_DDOT = 0

CCSDS_OMM_VERS = 2.0
CREATION_DATE  = 
ORIGINATOR     = 

OBJECT_NAME    = STARLINK-36449
OBJECT_ID      = 2026-002D
CENTER_NAME    = EARTH
REF_FRAME      = TEME
TIME_SYSTEM    = UTC
MEAN_ELEMENT_THEORY = SGP/SGP4

EPOCH          = 2026-01-16T22:00:01.999584
MEAN_MOTION    = 15.83357260
ECCENTRICITY   = .00015211
INCLINATION    = 42.9966
RA_OF_ASC_NODE = 264.0147
ARG_OF_PERICENTER = 275.6452
MEAN_ANOMALY   = 250.7097

EPHEMERIS_TYPE = 0
CLASSIFICATION_TYPE = U
NORAD_CAT_ID   = 67308
ELEMENT_SET_NO = 999
REV_AT_EPOCH   = 315
BSTAR          = -.68496855E-2
MEAN_MOTION_DOT = -.134655E-1
MEAN_MOTION_DDOT = 0

